CUTE-1 (CO-55)          
1 27844U 03031E   26133.47488448  .00000193  00000+0  10262-3 0  9990
2 27844  98.6747 142.4698 0008333 288.8739  71.1536 14.24313421186737
CUBESAT XI-IV (CO-57)   
1 27848U 03031J   26133.51625642  .00000166  00000+0  92066-4 0  9991
2 27848  98.6778 142.2511 0008438 309.7556  50.2879 14.23601563186445
CUBESAT XI-V            
1 28895U 05043F   26133.40904681  .00000792  00000+0  13289-3 0  9994
2 28895  98.2946 288.3105 0013121 319.7744  40.2490 14.72536322 96630
CUTE-1.7+APD II (CO-65) 
1 32785U 08021C   26133.83980273  .00003175  00000+0  20423-3 0  9990
2 32785  97.8259 114.5575 0010067 137.6761 222.5246 15.09111298980018
CANX-2                  
1 32790U 08021H   26133.46031810  .00001970  00000+0  14187-3 0  9990
2 32790  97.8625 112.5755 0011235 151.8484 208.3351 15.05361840979582
SEEDS II (CO-66)        
1 32791U 08021J   26133.52050985  .00011334  00000+0  37469-3 0  9995
2 32791  97.7522 129.7991 0004988  83.2140 276.9668 15.31529848981986
SWISSCUBE               
1 35932U 09051B   26133.20649610  .00000614  00000+0  13125-3 0  9995
2 35932  98.4058  40.4838 0006178 333.2561  26.8321 14.62411053884043
BEESAT-1                
1 35933U 09051C   26133.54014512  .00000511  00000+0  11264-3 0  9998
2 35933  98.3987  40.5309 0005015 350.4158   9.6946 14.61661113884124
ITUPSAT1                
1 35935U 09051E   26133.70631156  .00000465  00000+0  10616-3 0  9995
2 35935  98.4071  39.9277 0007405 356.5944   3.5204 14.60386079883709
TISAT 1                 
1 36799U 10035E   26133.34624792  .00012278  00000+0  42092-3 0  9994
2 36799  98.0691  76.8483 0003488  52.2159 307.9396 15.30347916862374
AEROCUBE 4.5A           
1 38767U 12048K   26133.40036949  .00121316  00000+0  69699-3 0  9991
2 38767  64.6289 152.2600 0019057 216.8530 143.1315 15.77906015367141
STRAND-1                
1 39090U 13009E   26133.45373877  .00000176  00000+0  73686-4 0  9990
2 39090  98.3916 314.5447 0008166 343.0038  17.0874 14.37141977692074
BRITE-AUSTRIA           
1 39091U 13009F   26133.45170535  .00000103  00000+0  49498-4 0  9991
2 39091  98.3988 313.7488 0009899 350.9654   9.1353 14.36527680692066
NEE-01 PEGASO           
1 39151U 13018B   26133.36122948  .00001488  00000+0  14717-3 0  9995
2 39151  98.1178 276.3748 0011281 279.5915  80.4029 14.93483981705503
POPACS 2                
1 39269U 13055E   26133.54293597  .00009675  00000+0  16618-3 0  9993
2 39269  80.9929 183.8279 0419175 305.2468  51.0182 14.90416576658055
POPACS 3                
1 39270U 13055F   26133.33857603  .00010771  00000+0  25723-3 0  9992
2 39270  81.0001 266.9447 0554900 175.9665 184.6305 14.55254304633487
ZACUBE-1 (TSHEPISOSAT)  
1 39417U 13066B   26133.87678757  .00003054  00000+0  24041-3 0  9995
2 39417  97.8119  96.0275 0041751   8.5716 351.6211 15.00914346675588
WNISAT-1                
1 39423U 13066H   26133.41760971  .00000291  00000+0  62059-4 0  9994
2 39423  97.7159 285.0504 0162649 341.9130  17.6324 14.58018141661665
TRITON-1                
1 39427U 13066M   26133.85314148  .00001872  00000+0  22931-3 0  9997
2 39427  97.8266  44.4418 0090055 347.3712  12.5244 14.81551104669005
GOMX-1                  
1 39430U 13066Q   26133.79668815  .00001066  00000+0  16683-3 0  9999
2 39430  97.6514 336.4283 0128519 187.3139 172.6197 14.69318956664865
CUBEBUG-2 (LO-74)       
1 39440U 13066AA  26133.42777407  .00001579  00000+0  15075-3 0  9991
2 39440  97.8890  82.2722 0058866 141.3076 219.2383 14.93493448671800
NEE-02 KRYSAOR          
1 39441U 13066AB  26133.27443470  .00000951  00000+0  10977-3 0  9994
2 39441  97.8882  72.7460 0066091 182.8707 177.2139 14.86483884671015
FUNCUBE-1 (AO-73)       
1 39444U 13066AE  26133.84599566  .00005264  00000+0  33223-3 0  9999
2 39444  97.8259 104.5913 0035257 323.3687  36.5131 15.09031555674485
UWE-3                   
1 39446U 13066AG  26133.38821264  .00002066  00000+0  18157-3 0  9999
2 39446  97.8680  89.2422 0050799  75.9697 284.7165 14.96721930672376
BRITE-CA1 (TORONTO)     
1 40020U 14033L   26133.58951809  .00000435  00000+0  73067-4 0  9995
2 40020  97.9689 263.1660 0079243  28.6389 331.9136 14.72628086637120
DUCHIFAT-1              
1 40021U 14033M   26133.60229132  .00058134  00000+0  76203-3 0  9999
2 40021  98.0506 188.0926 0005809 184.6576 175.4625 15.58372421650357
NANOSATC-BR1            
1 40024U 14033Q   26133.03929226  .00010985  00000+0  37739-3 0  9993
2 40024  98.0756 162.3424 0001930 326.7264  33.3853 15.30316701648608
QB50P1                  
1 40025U 14033R   26133.54269556  .00005111  00000+0  25713-3 0  9997
2 40025  98.0980 142.2743 0008313 356.9133   3.2046 15.17705167647771
QB50P2                  
1 40032U 14033Y   26133.75327913  .00003971  00000+0  21848-3 0  9997
2 40032  98.0752 128.5046 0005792 299.3582  60.7069 15.14700736647457
PERSEUS-M2              
1 40037U 14033AD  26133.80496200  .00001213  00000+0  11517-3 0  9993
2 40037  97.9936  83.6525 0013202  57.6956 302.5541 14.95398215645646
